BEIJING 1               
1 28890U 05043A   15120.83198363  .00000312  00000-0  72396-4 0  9996
2 28890  97.8163 306.8107 0016750  86.2291 274.0831 14.60974867506766
HJ-1A                   
1 33320U 08041A   15120.80532377  .00001349  00000-0  20191-3 0  9991
2 33320  98.0339 183.0032 0026916  14.6594 345.5373 14.76110712357921
HJ-1B                   
1 33321U 08041B   15120.77389567  .00001525  00000-0  22605-3 0  9997
2 33321  98.0370 183.7106 0036021  29.8181 330.5057 14.76138565357901
YAOGAN 4                
1 33446U 08061A   15120.87486572  .00000961  00000-0  14665-3 0  9992
2 33446  97.6492 151.9187 0015888 316.0326  43.9623 14.75909493345192
DEIMOS-1                
1 35681U 09041A   15120.84121987  .00000547  00000-0  96491-4 0  9995
2 35681  98.0341  16.0052 0000675 356.5749   3.5454 14.71343187308675
UK-DMC 2                
1 35683U 09041C   15120.79790728  .00000359  00000-0  66841-4 0  9993
2 35683  97.9366  13.2487 0001475  83.3502 276.7873 14.70678158308581
RISAT 1                 
1 38248U 12017A   15120.78850958  .00001655  00000-0  10874-3 0  9995
2 38248  97.5619 128.3911 0003305 172.3694 309.1188 15.08979359165853
